{
  "norad_id": 65035,
  "name": "STARLINK-34286",
  "history": [
    {
      "epoch": "2026-03-28T17:17:39.767424Z",
      "apogee_km": 476.0746556045906,
      "perigee_km": 474.28128014379763,
      "latitude_deg": 5.049811962831397e-05,
      "longitude_deg": 120.24264922415476,
      "height_km": 476.13317369730265,
      "semi_major_axis_km": 6853.314967874194,
      "eccentricity": 0.00013084,
      "inclination_deg": 53.1604,
      "raan_deg": 205.7953,
      "arg_perigee_deg": 93.6536,
      "mean_anomaly_deg": 266.4615,
      "mean_motion_rev_day": 15.30212426
    },
    {
      "epoch": "2026-03-29T01:07:56.047872Z",
      "apogee_km": 476.457321515064,
      "perigee_km": 473.9394061024004,
      "latitude_deg": -2.1804184656721422e-05,
      "longitude_deg": 0.8360707762455454,
      "height_km": 475.92669196544796,
      "semi_major_axis_km": 6853.335363808732,
      "eccentricity": 0.0001837,
      "inclination_deg": 53.1594,
      "raan_deg": 204.2785,
      "arg_perigee_deg": 82.2893,
      "mean_anomaly_deg": 277.8316,
      "mean_motion_rev_day": 15.30205595
    },
    {
      "epoch": "2026-03-30T00:38:43.966464Z",
      "apogee_km": 475.9362270850952,
      "perigee_km": 474.5523923310393,
      "latitude_deg": 1.1086915842298526e-05,
      "longitude_deg": 2.618877639239688,
      "height_km": 476.03145660721134,
      "semi_major_axis_km": 6853.381309708067,
      "eccentricity": 0.00010096,
      "inclination_deg": 53.159,
      "raan_deg": 199.7266,
      "arg_perigee_deg": 80.7528,
      "mean_anomaly_deg": 279.3587,
      "mean_motion_rev_day": 15.30190207
    },
    {
      "epoch": "2026-03-30T13:11:09.906144Z",
      "apogee_km": 475.9493394683741,
      "perigee_km": 474.49642717311053,
      "latitude_deg": -3.73446502334044e-05,
      "longitude_deg": 171.56823853066498,
      "height_km": 475.9440361383456,
      "semi_major_axis_km": 6853.3598833207425,
      "eccentricity": 0.000106,
      "inclination_deg": 53.1594,
      "raan_deg": 197.2991,
      "arg_perigee_deg": 75.8823,
      "mean_anomaly_deg": 284.2295,
      "mean_motion_rev_day": 15.30197383
    },
    {
      "epoch": "2026-03-30T19:27:22.546368Z",
      "apogee_km": 475.9276199439455,
      "perigee_km": 474.415094789475,
      "latitude_deg": -1.5148518294570066e-05,
      "longitude_deg": 76.04478071635874,
      "height_km": 475.82293005696323,
      "semi_major_axis_km": 6853.30835736671,
      "eccentricity": 0.00011035,
      "inclination_deg": 53.1597,
      "raan_deg": 196.0858,
      "arg_perigee_deg": 70.9539,
      "mean_anomaly_deg": 289.1581,
      "mean_motion_rev_day": 15.3021464
    },
    {
      "epoch": "2026-03-31T00:09:31.370976Z",
      "apogee_km": 475.51334433083684,
      "perigee_km": 474.7415296899417,
      "latitude_deg": -3.934828492701143e-05,
      "longitude_deg": 4.404970902762294,
      "height_km": 476.10385511769886,
      "semi_major_axis_km": 6853.264437010389,
      "eccentricity": 5.631e-05,
      "inclination_deg": 53.1598,
      "raan_deg": 195.1759,
      "arg_perigee_deg": 258.63,
      "mean_anomaly_deg": 101.4637,
      "mean_motion_rev_day": 15.3022935
    }
  ]
}